satname,norad_id,inclination_deg,eccentricity,mean_motion_rev_per_day,perigee_km,apogee_km,l1,l2
STARLINK-1274,45387,53.0341,0.0005115,15.32428333,465.06764191370985,472.0718229009626,1 45387U 20019AD  25333.83891061  .00055783  00000+0  17549-2 0  9996,2 45387  53.0341 215.0384 0005115  68.4219 291.7325 15.32428333315237
STARLINK-1280,45388,53.0527,0.0009831,15.44763854,425.3769123203474,438.76714531280595,1 45388U 20019AE  25333.15505535  .00080728  00000+0  16874-2 0  9997,2 45388  53.0527 248.1275 0009831  94.2818 265.9311 15.44763854314703
STARLINK-1283,45389,53.0541,0.0009647,15.34238997,456.58199663765845,469.78163716298604,1 45389U 20019AF  25332.96926160  .00062115  00000+0  18413-2 0  9998,2 45389  53.0541 230.0519 0009647 100.6177 259.5911 15.34238997314952
STARLINK-1284,45390,53.0555,0.0001602,15.0638796,546.139012299439,548.3579058005189,1 45390U 20019AG  25333.03827237  .00000753  00000+0  69464-4 0  9998,2 45390  53.0555 238.4654 0001602  99.6522 260.4648 15.06387960314834
STARLINK-1297,45395,53.0536,0.0001471,15.06394321,546.2102419768298,548.2476846432355,1 45395U 20019AM  25333.00879345  .00004686  00000+0  33329-3 0  9996,2 45395  53.0536 238.5952 0001471  76.0227 284.0925 15.06394321314014
STARLINK-1307,45397,53.0545,0.00015,15.06392201,546.1966549840135,548.2742667222701,1 45397U 20019AP  25333.13411230  .00004150  00000+0  29739-3 0  9993,2 45397  53.0545 238.0287 0001500  86.4737 273.6424 15.06392201314671
STARLINK-1255,45399,53.047,0.0007587,15.34314465,457.76714168128365,468.14781844533263,1 45399U 20019AR  25333.82445966  .00058361  00000+0  17283-2 0  9997,2 45399  53.0470 217.1171 0007587 110.4224 249.7592 15.34314465315016
STARLINK-1260,45404,53.0546,0.0001605,15.06398724,546.1039496260337,548.3269877684861,1 45404U 20019AW  25333.13503029  .00004335  00000+0  30975-3 0  9999,2 45404  53.0546 228.0208 0001605  85.0142 275.1030 15.06398724314704
STARLINK-1263,45405,53.0562,0.0001807,15.06396313,545.9714455589447,548.4742706116567,1 45405U 20019AX  25333.12028892  .00002155  00000+0  16354-3 0  9992,2 45405  53.0562 228.0929 0001807  92.7261 267.3935 15.06396313314703
STARLINK-1265,45406,53.0542,0.0001305,15.06476952,546.0719939707033,547.8794483909314,1 45406U 20019AY  25333.12763614  .00032970  00000+0  22174-2 0  9995,2 45406  53.0542 228.0605 0001305  73.8606 286.2527 15.06476952314704
STARLINK-1278,45408,53.052,0.0008951,15.37491808,447.414113985119,459.64416270598485,1 45408U 20019BA  25333.19412700  .00060145  00000+0  16076-2 0  9990,2 45408  53.0520 249.7537 0008951  89.5331 270.6698 15.37491808314414
STARLINK-1296,45412,53.0541,0.0001431,15.06399325,546.22260904215,548.204644391516,1 45412U 20019BE  25333.13134097  .00004755  00000+0  33790-3 0  9997,2 45412  53.0541 228.0411 0001431  86.7214 273.3938 15.06399325314704
STARLINK-1298,45413,53.0465,0.0008862,15.57673611,388.39007561060953,400.3937058165102,1 45413U 20019BF  25333.81643932  .00110657  00000+0  14522-2 0  9996,2 45413  53.0465 190.9417 0008862  66.2293 293.9647 15.57673611315387
STARLINK-1309,45414,53.0547,0.0001669,15.06407058,546.0340892052818,548.34576333327,1 45414U 20019BG  25333.07972743  .00004069  00000+0  29184-3 0  9990,2 45414  53.0547 228.2743 0001669  91.6048 268.5132 15.06407058314687
STARLINK-1316,45415,53.0541,0.0001444,15.06393598,546.2311560506305,548.2312023807881,1 45415U 20019BH  25333.10554333  .00002704  00000+0  20038-3 0  9999,2 45415  53.0541 228.1556 0001444  88.8269 271.2886 15.06393598314722
STARLINK-1318,45416,53.0481,0.0005169,15.64494198,371.20329225108435,378.18436876366286,1 45416U 20019BJ  25333.73026480  .00079264  00000+0  80565-3 0  9992,2 45416  53.0481 181.3453 0005169 133.6838 226.4606 15.64494198315423
STARLINK-1286,45417,53.0527,0.0005227,15.39017251,445.44556684056806,452.5826706200887,1 45417U 20019BK  25333.06262485  .00032087  00000+0  82453-3 0  9996,2 45417  53.0527 250.4646 0005227  90.0352 270.1250 15.39017251314668
STARLINK-1308,45419,53.0557,0.000179,15.0640949,545.9428404221844,548.4221047933779,1 45419U 20019BM  25333.20597057 -.00000089  00000+0  12914-4 0  9994,2 45419  53.0557 257.7050 0001790  89.4598 270.6596 15.06409490314322
STARLINK-1329,45531,53.0539,0.0001466,15.06410709,546.163485303111,548.19398787708,1 45531U 20025A   25333.83810076 -.00003521  00000+0 -21752-3 0  9998,2 45531  53.0539 194.8707 0001466  85.0758 275.0399 15.06410709310047
STARLINK-1338,45532,53.0528,0.0001296,15.06391842,546.3390327326251,548.1340895596732,1 45532U 20025B   25333.05300994  .00001732  00000+0  13518-3 0  9997,2 45532  53.0528 198.3932 0001296  91.8799 268.2339 15.06391842309925
STARLINK-1350,45535,53.0723,0.0002195,15.33191185,464.796099940816,467.80080710491256,1 45535U 20025E   25333.76194701  .00012121  00000+0  38352-3 0  9992,2 45535  53.0723 141.4262 0002195 106.3803 253.7440 15.33191185310817
STARLINK-1362,45538,53.0533,0.0001557,15.06386469,546.174745587392,548.3313120423654,1 45538U 20025H   25333.81501220 -.00005478  00000+0 -34928-3 0  9993,2 45538  53.0533 194.6912 0001557  79.8672 280.2493 15.06386469310049
STARLINK-1368,45540,53.053,0.00016,15.06406291,546.0842243121288,548.3003296807674,1 45540U 20025K   25333.81968514  .00003885  00000+0  27954-3 0  9998,2 45540  53.0530 194.9530 0001600  92.3396 267.7776 15.06406291310039
STARLINK-1371,45542,53.0525,0.0001857,15.06394079,545.9436644128182,548.5157456070583,1 45542U 20025M   25333.65750420  .00000106  00000+0  26007-4 0  9999,2 45542  53.0525 195.6770 0001857  93.7324 266.3877 15.06394079310014
STARLINK-1372,45543,53.0525,0.0001543,15.06411314,546.1083064427703,548.2454583068711,1 45543U 20025N   25333.82706125  .00003473  00000+0  25186-3 0  9998,2 45543  53.0525 194.9188 0001543  91.0225 269.0941 15.06411314309138
STARLINK-1373,45544,53.0531,0.000146,15.063992,546.2029085767072,548.2251110715761,1 45544U 20025P   25333.64644390  .00000679  00000+0  64479-4 0  9998,2 45544  53.0531 195.7266 0001460  92.7382 267.3774 15.06399200310015
STARLINK-1294,45551,53.0453,0.0004205,15.65087477,370.148340852199,375.82603629478945,1 45551U 20025W   25333.66373133  .00083807  00000+0  83142-3 0  9993,2 45551  53.0453 117.1246 0004205 147.6672 212.4601 15.65087477311122
STARLINK-1325,45554,53.0502,0.0006206,15.73321868,345.23562884747025,353.58586110853594,1 45554U 20025Z   25333.91670139  .00110987  00000+0  77989-3 0  9992,2 45554  53.0502 107.9216 0006206 321.1372 298.2490 15.73321868  5990
STARLINK-1327,45555,53.054,0.0001579,15.06398887,546.1214560491508,548.3084822010014,1 45555U 20025AA  25333.81783373  .00001045  00000+0  89056-4 0  9990,2 45555  53.0540 174.9603 0001579  92.3250 267.7920 15.06398887310312
STARLINK-1356,45564,53.0529,0.0001591,15.06402856,546.1009831605152,548.3046262863782,1 45564U 20025AK  25333.82152301  .00001161  00000+0  96797-4 0  9991,2 45564  53.0529 174.9425 0001591 107.5186 252.5976 15.06402856310317
STARLINK-1357,45565,53.0607,0.000995,15.36965569,448.28937834881435,461.8874969697563,1 45565U 20025AL  25333.82726866  .00071331  00000+0  19339-2 0  9996,2 45565  53.0607 154.1421 0009950 116.7926 243.4096 15.36965569310615
STARLINK-1361,45567,53.0533,0.0001624,15.06391902,546.1116966166701,548.3610578896023,1 45567U 20025AN  25333.83995080 -.00000638  00000+0 -23907-4 0  9997,2 45567  53.0533 174.8576 0001624  90.3048 269.8127 15.06391902310323
STARLINK-1363,45568,53.0522,0.0007504,15.46502864,421.859231036422,432.0723292888906,1 45568U 20025AP  25333.80653510  .00102240  00000+0  20072-2 0  9992,2 45568  53.0522 164.8753 0007504 158.5869 201.5452 15.46502864310452
STARLINK-1366,45569,53.0528,0.0004497,15.43869153,431.63913618867355,437.76660436800194,1 45569U 20025AQ  25333.80217461  .00094422  00000+0  20319-2 0  9990,2 45569  53.0528 164.7292 0004497 160.5022 199.6156 15.43869153310450
STARLINK-1376,45570,53.0536,0.000145,15.06397279,546.2157206738084,548.2240741740616,1 45570U 20025AR  25333.83626617  .00000281  00000+0  37779-4 0  9992,2 45570  53.0536 174.8793 0001450  89.5787 270.5368 15.06397279310316
STARLINK-1320,45572,53.0543,0.0007374,15.46615631,421.6171543665014,431.6528321021242,1 45572U 20025AT  25333.91670139  .00114224  00000+0  22295-2 0  9999,2 45572  53.0543 109.9348 0007374 105.8316 340.6221 15.46615631  5948
STARLINK-1321,45573,53.0534,0.000146,15.06402382,546.193157637379,548.2153572845582,1 45573U 20025AU  25333.82243661  .00001048  00000+0  89235-4 0  9994,2 45573  53.0534 164.9400 0001460  91.5179 268.5977 15.06402382310158
STARLINK-1328,45576,53.0452,0.0005671,15.80252261,325.9226447124038,333.5307036916838,1 45576U 20025AX  25333.91670139  .00218221  00000+0  11117-2 0  9996,2 45576  53.0452 126.6095 0005671 151.7982 182.4396 15.80252261  5975
STARLINK-1331,45578,53.0537,0.0001396,15.06401044,546.2415800184799,548.1751364424972,1 45578U 20025AZ  25333.80032831  .00001531  00000+0  12166-3 0  9997,2 45578  53.0537 165.0398 0001396  92.8047 267.3101 15.06401044310464
STARLINK-1333,45580,53.0542,0.0001341,15.06397044,546.2919272108202,548.1493081238787,1 45580U 20025BB  25333.80678314  .00000364  00000+0  43344-4 0  9998,2 45580  53.0542 175.0088 0001341  96.9026 263.2115 15.06397044310310
STARLINK-1335,45581,53.0531,0.0001238,15.06401188,546.3505591910634,548.0652745924845,1 45581U 20025BC  25333.81138547  .00001021  00000+0  87395-4 0  9994,2 45581  53.0531 164.9911 0001238  97.4906 262.6224 15.06401188310453
STARLINK-1337,45582,53.0536,0.0002012,15.06314968,546.0787484637667,548.8656135982137,1 45582U 20025BD  25333.83352275  .00020149  00000+0  13708-2 0  9990,2 45582  53.0536 164.8917 0002012  87.8776 272.2444 15.06314968310453
STARLINK-1347,45586,53.0514,0.0009108,15.3593398,451.9212352636223,464.37421151574927,1 45586U 20025BH  25333.64623997  .00077721  00000+0  21759-2 0  9998,2 45586  53.0514 145.6303 0009108 119.4891 240.7020 15.35933980310703
